SL-16 R/B               
1 26070U 00006B   26122.35411731  .00000137  00000+0  93648-4 0  9993
2 26070  71.0040 344.9992 0014382 101.4263 258.8476 14.15834235356150
TITAN 4B R/B            
1 26474U 00047B   26122.42376443  .00003355  00000+0  21020-3 0  9993
2 26474  67.9893 249.3580 0043022 334.3149  25.5863 15.09956105401023
ENVISAT                 
1 27386U 02009A   26122.43888514  .00000092  00000+0  43731-4 0  9993
2 27386  98.3808  74.7862 0001144  88.7216  24.5574 14.39053694266904
IDEFIX & ARIANE 42P R/B 
1 27422U 02021B   26122.40343242  .00000252  00000+0  11220-3 0  9994
2 27422  98.5927  60.3886 0012537  34.0193 326.1791 14.31059493251701
AQUA                    
1 27424U 02022A   26122.47960377  .00000889  00000+0  18685-3 0  9996
2 27424  98.4252  90.8602 0002120  88.9865 346.0215 14.62086283276595
CZ-4B R/B               
1 27432U 02024C   26122.19039346  .00000058  00000+0  52682-4 0  9993
2 27432  98.8736 175.2999 0049341 230.2158 176.2121 14.14556793236809
MIDORI II (ADEOS-II)    
1 27597U 02056A   26122.35658733  .00000293  00000+0  13283-3 0  9999
2 27597  98.7850  81.2364 0001124 137.6806 222.4462 14.29323056217964
H-2A R/B                
1 27601U 02056E   26122.38275725  .00000329  00000+0  12984-3 0  9991
2 27601  98.3285  80.7353 0070319   2.7437 109.9081 14.33798308221809
CZ-4B R/B               
1 28059U 03049C   26122.43417301  .00000419  00000+0  10723-3 0  9995
2 28059  98.6898 119.4627 0049251  68.2463 292.3965 14.55066149194410
CZ-2C R/B               
1 28222U 04012C   26122.15707939  .00086154  00000+0  67028-3 0  9996
2 28222  97.7122 192.7635 0012937 115.2235 245.0370 15.71375087212651
SL-16 R/B               
1 28353U 04021B   26122.41059566 -.00000195  00000+0 -76528-4 0  9995
2 28353  70.9978 119.7572 0006913 302.4418  57.6036 14.14602251130430
CZ-4B R/B               
1 28415U 04035C   26122.35924150  .00008695  00000+0  29783-3 0  9993
2 28415  97.3406 155.9652 0032839 136.0377 224.3484 15.29922940188115
CZ-2C R/B               
1 28480U 04046B   26122.26541502  .00000179  00000+0  81699-4 0  9997
2 28480  98.1969  33.9096 0139394 356.9880   3.0448 14.27013175116147
