[
    {
        "OBJECT_NAME": "SL-16 R/B",
        "OBJECT_ID": "2000-006B",
        "EPOCH": "2026-05-02T08:29:55.735584",
        "MEAN_MOTION": 14.15834235,
        "ECCENTRICITY": 0.0014382,
        "INCLINATION": 71.004,
        "RA_OF_ASC_NODE": 344.9992,
        "ARG_OF_PERICENTER": 101.4263,
        "MEAN_ANOMALY": 258.8476,
        "EPHEMERIS_TYPE": 0,
        "CLASSIFICATION_TYPE": "U",
        "NORAD_CAT_ID": 26070,
        "ELEMENT_SET_NO": 999,
        "REV_AT_EPOCH": 35615,
        "BSTAR": 9.3648e-05,
        "MEAN_MOTION_DOT": 1.37e-06,
        "MEAN_MOTION_DDOT": 0
    },
    {
        "OBJECT_NAME": "TITAN 4B R/B",
        "OBJECT_ID": "2000-047B",
        "EPOCH": "2026-05-02T10:10:13.246752",
        "MEAN_MOTION": 15.09956105,
        "ECCENTRICITY": 0.0043022,
        "INCLINATION": 67.9893,
        "RA_OF_ASC_NODE": 249.358,
        "ARG_OF_PERICENTER": 334.3149,
        "MEAN_ANOMALY": 25.5863,
        "EPHEMERIS_TYPE": 0,
        "CLASSIFICATION_TYPE": "U",
        "NORAD_CAT_ID": 26474,
        "ELEMENT_SET_NO": 999,
        "REV_AT_EPOCH": 40102,
        "BSTAR": 0.0002102,
        "MEAN_MOTION_DOT": 3.355e-05,
        "MEAN_MOTION_DDOT": 0
    },
    {
        "OBJECT_NAME": "ENVISAT",
        "OBJECT_ID": "2002-009A",
        "EPOCH": "2026-05-02T10:31:59.676096",
        "MEAN_MOTION": 14.39053694,
        "ECCENTRICITY": 0.0001144,
        "INCLINATION": 98.3808,
        "RA_OF_ASC_NODE": 74.7862,
        "ARG_OF_PERICENTER": 88.7216,
        "MEAN_ANOMALY": 24.5574,
        "EPHEMERIS_TYPE": 0,
        "CLASSIFICATION_TYPE": "U",
        "NORAD_CAT_ID": 27386,
        "ELEMENT_SET_NO": 999,
        "REV_AT_EPOCH": 26690,
        "BSTAR": 4.3731e-05,
        "MEAN_MOTION_DOT": 9.2e-07,
        "MEAN_MOTION_DDOT": 0
    },
    {
        "OBJECT_NAME": "IDEFIX & ARIANE 42P R/B",
        "OBJECT_ID": "2002-021B",
        "EPOCH": "2026-05-02T09:40:56.561088",
        "MEAN_MOTION": 14.31059493,
        "ECCENTRICITY": 0.0012537,
        "INCLINATION": 98.5927,
        "RA_OF_ASC_NODE": 60.3886,
        "ARG_OF_PERICENTER": 34.0193,
        "MEAN_ANOMALY": 326.1791,
        "EPHEMERIS_TYPE": 0,
        "CLASSIFICATION_TYPE": "U",
        "NORAD_CAT_ID": 27422,
        "ELEMENT_SET_NO": 999,
        "REV_AT_EPOCH": 25170,
        "BSTAR": 0.0001122,
        "MEAN_MOTION_DOT": 2.52e-06,
        "MEAN_MOTION_DDOT": 0
    },
    {
        "OBJECT_NAME": "AQUA",
        "OBJECT_ID": "2002-022A",
        "EPOCH": "2026-05-02T11:30:37.765728",
        "MEAN_MOTION": 14.62086283,
        "ECCENTRICITY": 0.000212,
        "INCLINATION": 98.4252,
        "RA_OF_ASC_NODE": 90.8602,
        "ARG_OF_PERICENTER": 88.9865,
        "MEAN_ANOMALY": 346.0215,
        "EPHEMERIS_TYPE": 0,
        "CLASSIFICATION_TYPE": "U",
        "NORAD_CAT_ID": 27424,
        "ELEMENT_SET_NO": 999,
        "REV_AT_EPOCH": 27659,
        "BSTAR": 0.00018685,
        "MEAN_MOTION_DOT": 8.89e-06,
        "MEAN_MOTION_DDOT": 0
    },
    {
        "OBJECT_NAME": "CZ-4B R/B",
        "OBJECT_ID": "2002-024C",
        "EPOCH": "2026-05-02T04:34:09.994944",
        "MEAN_MOTION": 14.14556793,
        "ECCENTRICITY": 0.0049341,
        "INCLINATION": 98.8736,
        "RA_OF_ASC_NODE": 175.2999,
        "ARG_OF_PERICENTER": 230.2158,
        "MEAN_ANOMALY": 176.2121,
        "EPHEMERIS_TYPE": 0,
        "CLASSIFICATION_TYPE": "U",
        "NORAD_CAT_ID": 27432,
        "ELEMENT_SET_NO": 999,
        "REV_AT_EPOCH": 23680,
        "BSTAR": 5.2682e-05,
        "MEAN_MOTION_DOT": 5.8e-07,
        "MEAN_MOTION_DDOT": 0
    },
    {
        "OBJECT_NAME": "MIDORI II (ADEOS-II)",
        "OBJECT_ID": "2002-056A",
        "EPOCH": "2026-05-02T08:33:29.145312",
        "MEAN_MOTION": 14.29323056,
        "ECCENTRICITY": 0.0001124,
        "INCLINATION": 98.785,
        "RA_OF_ASC_NODE": 81.2364,
        "ARG_OF_PERICENTER": 137.6806,
        "MEAN_ANOMALY": 222.4462,
        "EPHEMERIS_TYPE": 0,
        "CLASSIFICATION_TYPE": "U",
        "NORAD_CAT_ID": 27597,
        "ELEMENT_SET_NO": 999,
        "REV_AT_EPOCH": 21796,
        "BSTAR": 0.00013283,
        "MEAN_MOTION_DOT": 2.93e-06,
        "MEAN_MOTION_DDOT": 0
    },
    {
        "OBJECT_NAME": "H-2A R/B",
        "OBJECT_ID": "2002-056E",
        "EPOCH": "2026-05-02T09:11:10.226400",
        "MEAN_MOTION": 14.33798308,
        "ECCENTRICITY": 0.0070319,
        "INCLINATION": 98.3285,
        "RA_OF_ASC_NODE": 80.7353,
        "ARG_OF_PERICENTER": 2.7437,
        "MEAN_ANOMALY": 109.9081,
        "EPHEMERIS_TYPE": 0,
        "CLASSIFICATION_TYPE": "U",
        "NORAD_CAT_ID": 27601,
        "ELEMENT_SET_NO": 999,
        "REV_AT_EPOCH": 22180,
        "BSTAR": 0.00012984,
        "MEAN_MOTION_DOT": 3.29e-06,
        "MEAN_MOTION_DDOT": 0
    },
    {
        "OBJECT_NAME": "CZ-4B R/B",
        "OBJECT_ID": "2003-049C",
        "EPOCH": "2026-05-02T10:25:12.548064",
        "MEAN_MOTION": 14.55066149,
        "ECCENTRICITY": 0.0049251,
        "INCLINATION": 98.6898,
        "RA_OF_ASC_NODE": 119.4627,
        "ARG_OF_PERICENTER": 68.2463,
        "MEAN_ANOMALY": 292.3965,
        "EPHEMERIS_TYPE": 0,
        "CLASSIFICATION_TYPE": "U",
        "NORAD_CAT_ID": 28059,
        "ELEMENT_SET_NO": 999,
        "REV_AT_EPOCH": 19441,
        "BSTAR": 0.00010723,
        "MEAN_MOTION_DOT": 4.19e-06,
        "MEAN_MOTION_DDOT": 0
    },
    {
        "OBJECT_NAME": "CZ-2C R/B",
        "OBJECT_ID": "2004-012C",
        "EPOCH": "2026-05-02T03:46:11.659296",
        "MEAN_MOTION": 15.71375087,
        "ECCENTRICITY": 0.0012937,
        "INCLINATION": 97.7122,
        "RA_OF_ASC_NODE": 192.7635,
        "ARG_OF_PERICENTER": 115.2235,
        "MEAN_ANOMALY": 245.037,
        "EPHEMERIS_TYPE": 0,
        "CLASSIFICATION_TYPE": "U",
        "NORAD_CAT_ID": 28222,
        "ELEMENT_SET_NO": 999,
        "REV_AT_EPOCH": 21265,
        "BSTAR": 0.00067028,
        "MEAN_MOTION_DOT": 0.00086154,
        "MEAN_MOTION_DDOT": 0
    },
    {
        "OBJECT_NAME": "SL-16 R/B",
        "OBJECT_ID": "2004-021B",
        "EPOCH": "2026-05-02T09:51:15.465024",
        "MEAN_MOTION": 14.14602251,
        "ECCENTRICITY": 0.0006913,
        "INCLINATION": 70.9978,
        "RA_OF_ASC_NODE": 119.7572,
        "ARG_OF_PERICENTER": 302.4418,
        "MEAN_ANOMALY": 57.6036,
        "EPHEMERIS_TYPE": 0,
        "CLASSIFICATION_TYPE": "U",
        "NORAD_CAT_ID": 28353,
        "ELEMENT_SET_NO": 999,
        "REV_AT_EPOCH": 13043,
        "BSTAR": -7.6528e-05,
        "MEAN_MOTION_DOT": -1.95e-06,
        "MEAN_MOTION_DDOT": 0
    },
    {
        "OBJECT_NAME": "CZ-4B R/B",
        "OBJECT_ID": "2004-035C",
        "EPOCH": "2026-05-02T08:37:18.465600",
        "MEAN_MOTION": 15.2992294,
        "ECCENTRICITY": 0.0032839,
        "INCLINATION": 97.3406,
        "RA_OF_ASC_NODE": 155.9652,
        "ARG_OF_PERICENTER": 136.0377,
        "MEAN_ANOMALY": 224.3484,
        "EPHEMERIS_TYPE": 0,
        "CLASSIFICATION_TYPE": "U",
        "NORAD_CAT_ID": 28415,
        "ELEMENT_SET_NO": 999,
        "REV_AT_EPOCH": 18811,
        "BSTAR": 0.00029783,
        "MEAN_MOTION_DOT": 8.695e-05,
        "MEAN_MOTION_DDOT": 0
    },
    {
        "OBJECT_NAME": "CZ-2C R/B",
        "OBJECT_ID": "2004-046B",
        "EPOCH": "2026-05-02T06:22:11.857728",
        "MEAN_MOTION": 14.27013175,
        "ECCENTRICITY": 0.0139394,
        "INCLINATION": 98.1969,
        "RA_OF_ASC_NODE": 33.9096,
        "ARG_OF_PERICENTER": 356.988,
        "MEAN_ANOMALY": 3.0448,
        "EPHEMERIS_TYPE": 0,
        "CLASSIFICATION_TYPE": "U",
        "NORAD_CAT_ID": 28480,
        "ELEMENT_SET_NO": 999,
        "REV_AT_EPOCH": 11614,
        "BSTAR": 8.1699e-05,
        "MEAN_MOTION_DOT": 1.79e-06,
        "MEAN_MOTION_DDOT": 0
    }
]